{"type": "FeatureCollection", "features": [ {"type": "Feature", "properties": {"norad_id": 37715, "name": "FENGYUN 1C DEB", "group": "fengyun-1c-debris", "lat": 36.745252351385375, "lon": -5.4067828638419995, "alt_km": 859.0371417031802, "timestamp": "2025-12-19T18:58:41.877946+00:00", "meta": {"OBJECT_NAME": "FENGYUN 1C DEB", "OBJECT_ID": "1999-025EMG", "EPOCH": "2025-12-17T19:27:16.372224", "MEAN_MOTION": 13.95421222, "ECCENTRICITY": 0.01145113, "INCLINATION": 98.9562, "RA_OF_ASC_NODE": 359.431, "ARG_OF_PERICENTER": 98.2581, "MEAN_ANOMALY": 78.2636, "EPHEMERIS_TYPE": 0, "CLASSIFICATION_TYPE": "U", "NORAD_CAT_ID": 37715, "ELEMENT_SET_NO": 999, "REV_AT_EPOCH": 57874, "BSTAR": 0.00031322546, "MEAN_MOTION_DOT": 4.07e-06, "MEAN_MOTION_DDOT": 0}, "tle": {"line1": "1 37715U 99025EMG 25351.81060616  .00000407  00000+0  31323-3 0  9997", "line2": "2 37715  98.9562 359.4310 0114511  98.2581  78.2636 13.95421222578749"}}, "geometry": {"type": "Point", "coordinates": [-5.4067828638419995, 36.745252351385375]}}, {"type": "Feature", "properties": {"norad_id": 37717, "name": "FENGYUN 1C DEB", "group": "fengyun-1c-debris", "lat": 77.63242481655908, "lon": -94.12472209803114, "alt_km": 536.31668300823, "timestamp": "2025-12-19T18:58:41.877958+00:00", "meta": {"OBJECT_NAME": "FENGYUN 1C DEB", "OBJECT_ID": "1999-025EMJ", "EPOCH": "2025-12-15T15:45:42.031008", "MEAN_MOTION": 14.9413508, "ECCENTRICITY": 0.00589425, "INCLINATION": 98.7251, "RA_OF_ASC_NODE": 305.744, "ARG_OF_PERICENTER": 93.6212, "MEAN_ANOMALY": 83.4535, "EPHEMERIS_TYPE": 0, "CLASSIFICATION_TYPE": "U", "NORAD_CAT_ID": 37717, "ELEMENT_SET_NO": 999, "REV_AT_EPOCH": 89441, "BSTAR": 0.0015918464, "MEAN_MOTION_DOT": 0.00017586, "MEAN_MOTION_DDOT": 0}, "tle": {"line1": "1 37717U 99025EMJ 25349.65673647  .00017586  00000+0  15918-2 0  9999", "line2": "2 37717  98.7251 305.7440 0058942  93.6212  83.4535 14.94135080894412"}}, "geometry": {"type": "Point", "coordinates": [-94.12472209803114, 77.63242481655908]}}, {"type": "Feature", "properties": {"norad_id": 37902, "name": "FENGYUN 1C DEB", "group": "fengyun-1c-debris", "lat": 4.7431163387686395, "lon": -147.54363247736472, "alt_km": 999.3307875399805, "timestamp": "2025-12-19T18:58:41.877973+00:00", "meta": {"OBJECT_NAME": "FENGYUN 1C DEB", "OBJECT_ID": "1999-025ENB", "EPOCH": "2025-12-07T14:03:14.833440", "MEAN_MOTION": 13.52640367, "ECCENTRICITY": 0.03237878, "INCLINATION": 98.6837, "RA_OF_ASC_NODE": 202.4677, "ARG_OF_PERICENTER": 320.2654, "MEAN_ANOMALY": 37.5166, "EPHEMERIS_TYPE": 0, "CLASSIFICATION_TYPE": "U", "NORAD_CAT_ID": 37902, "ELEMENT_SET_NO": 999, "REV_AT_EPOCH": 62907, "BSTAR": 0.003775391, "MEAN_MOTION_DOT": 3.447e-05, "MEAN_MOTION_DDOT": 0}, "tle": {"line1": "1 37902U 99025ENB 25341.58558835  .00003447  00000+0  37754-2 0  9993", "line2": "2 37902  98.6837 202.4677 0323787 320.2654  37.5166 13.52640367629073"}}, "geometry": {"type": "Point", "coordinates": [-147.54363247736472, 4.7431163387686395]}}, {"type": "Feature", "properties": {"norad_id": 37906, "name": "FENGYUN 1C DEB", "group": "fengyun-1c-debris", "lat": -12.510953101971399, "lon": 36.910661537004835, "alt_km": 854.8121504381252, "timestamp": "2025-12-19T18:58:41.877983+00:00", "meta": {"OBJECT_NAME": "FENGYUN 1C DEB", "OBJECT_ID": "1999-025ENF", "EPOCH": "2025-12-17T09:43:38.923104", "MEAN_MOTION": 13.80796617, "ECCENTRICITY": 0.01626691, "INCLINATION": 99.5992, "RA_OF_ASC_NODE": 32.3357, "ARG_OF_PERICENTER": 16.2438, "MEAN_ANOMALY": 0.3742, "EPHEMERIS_TYPE": 0, "CLASSIFICATION_TYPE": "U", "NORAD_CAT_ID": 37906, "ELEMENT_SET_NO": 999, "REV_AT_EPOCH": 59520, "BSTAR": 0.00065282289, "MEAN_MOTION_DOT": 7.13e-06, "MEAN_MOTION_DDOT": 0}, "tle": {"line1": "1 37906U 99025ENF 25351.40531161  .00000713  00000+0  65282-3 0  9993", "line2": "2 37906  99.5992  32.3357 0162669  16.2438   0.3742 13.80796617595202"}}, "geometry": {"type": "Point", "coordinates": [36.910661537004835, -12.510953101971399]}}, {"type": "Feature", "properties": {"norad_id": 37907, "name": "FENGYUN 1C DEB", "group": "fengyun-1c-debris", "lat": -62.36338506126974, "lon": 124.77708980608898, "alt_km": 849.3490454575658, "timestamp": "2025-12-19T18:58:41.877993+00:00", "meta": {"OBJECT_NAME": "FENGYUN 1C DEB", "OBJECT_ID": "1999-025ENG", "EPOCH": "2025-12-18T02:47:52.898208", "MEAN_MOTION": 14.23621509, "ECCENTRICITY": 0.00633304, "INCLINATION": 99.0798, "RA_OF_ASC_NODE": 105.2668, "ARG_OF_PERICENTER": 171.0108, "MEAN_ANOMALY": 189.2219, "EPHEMERIS_TYPE": 0, "CLASSIFICATION_TYPE": "U", "NORAD_CAT_ID": 37907, "ELEMENT_SET_NO": 999, "REV_AT_EPOCH": 83349, "BSTAR": 0.0022047538, "MEAN_MOTION_DOT": 5.087e-05, "MEAN_MOTION_DDOT": 0}, "tle": {"line1": "1 37907U 99025ENG 25352.11658447  .00005087  00000+0  22048-2 0  9991", "line2": "2 37907  99.0798 105.2668 0063330 171.0108 189.2219 14.23621509833493"}}, "geometry": {"type": "Point", "coordinates": [124.77708980608898, -62.36338506126974]}}, {"type": "Feature", "properties": {"norad_id": 37908, "name": "FENGYUN 1C DEB", "group": "fengyun-1c-debris", "lat": 40.795264369510726, "lon": 18.12621432844834, "alt_km": 770.9945302758761, "timestamp": "2025-12-19T18:58:41.878003+00:00", "meta": {"OBJECT_NAME": "FENGYUN 1C DEB", "OBJECT_ID": "1999-025ENH", "EPOCH": "2025-12-06T19:52:32.356992", "MEAN_MOTION": 14.36573191, "ECCENTRICITY": 0.00744593, "INCLINATION": 99.1512, "RA_OF_ASC_NODE": 12.3562, "ARG_OF_PERICENTER": 174.8209, "MEAN_ANOMALY": 185.3763, "EPHEMERIS_TYPE": 0, "CLASSIFICATION_TYPE": "U", "NORAD_CAT_ID": 37908, "ELEMENT_SET_NO": 999, "REV_AT_EPOCH": 63976, "BSTAR": 0.0009644739, "MEAN_MOTION_DOT": 2.877e-05, "MEAN_MOTION_DDOT": 0}, "tle": {"line1": "1 37908U 99025ENH 25340.82815228  .00002877  00000+0  96447-3 0  9998", "line2": "2 37908  99.1512  12.3562 0074459 174.8209 185.3763 14.36573191639769"}}, "geometry": {"type": "Point", "coordinates": [18.12621432844834, 40.795264369510726]}}, {"type": "Feature", "properties": {"norad_id": 37912, "name": "FENGYUN 1C DEB", "group": "fengyun-1c-debris", "lat": 64.6144702736583, "lon": 162.64430602513332, "alt_km": 827.9560983021456, "timestamp": "2025-12-19T18:58:41.878014+00:00", "meta": {"OBJECT_NAME": "FENGYUN 1C DEB", "OBJECT_ID": "1999-025ENM", "EPOCH": "2025-12-17T20:31:02.815680", "MEAN_MOTION": 14.1153782, "ECCENTRICITY": 0.00921589, "INCLINATION": 99.2285, "RA_OF_ASC_NODE": 320.6183, "ARG_OF_PERICENTER": 45.8497, "MEAN_ANOMALY": 315.0203, "EPHEMERIS_TYPE": 0, "CLASSIFICATION_TYPE": "U", "NORAD_CAT_ID": 37912, "ELEMENT_SET_NO": 999, "REV_AT_EPOCH": 77360, "BSTAR": 0.0021693094, "MEAN_MOTION_DOT": 4.053e-05, "MEAN_MOTION_DDOT": 0}, "tle": {"line1": "1 37912U 99025ENM 25351.85489370  .00004053  00000+0  21693-2 0  9991", "line2": "2 37912  99.2285 320.6183 0092158  45.8497 315.0203 14.11537820773603"}}, "geometry": {"type": "Point", "coordinates": [162.64430602513332, 64.6144702736583]}}, {"type": "Feature", "properties": {"norad_id": 37918, "name": "FENGYUN 1C DEB", "group": "fengyun-1c-debris", "lat": 11.58559115721752, "lon": -58.304455919967445, "alt_km": 790.8168245160459, "timestamp": "2025-12-19T18:58:41.878024+00:00", "meta": {"OBJECT_NAME": "FENGYUN 1C DEB", "OBJECT_ID": "1999-025ENT", "EPOCH": "2025-12-19T02:10:57.088128", "MEAN_MOTION": 14.344086, "ECCENTRICITY": 0.00547207, "INCLINATION": 99.0287, "RA_OF_ASC_NODE": 302.8328, "ARG_OF_PERICENTER": 264.9871, "MEAN_ANOMALY": 94.5064, "EPHEMERIS_TYPE": 0, "CLASSIFICATION_TYPE": "U", "NORAD_CAT_ID": 37918, "ELEMENT_SET_NO": 999, "REV_AT_EPOCH": 3633, "BSTAR": 0.00052989416, "MEAN_MOTION_DOT": 1.468e-05, "MEAN_MOTION_DDOT": 0}, "tle": {"line1": "1 37918U 99025ENT 25353.09093852  .00001468  00000+0  52989-3 0  9991", "line2": "2 37918  99.0287 302.8328 0054720 264.9871  94.5064 14.34408600 36339"}}, "geometry": {"type": "Point", "coordinates": [-58.304455919967445, 11.58559115721752]}}, {"type": "Feature", "properties": {"norad_id": 37919, "name": "FENGYUN 1C DEB", "group": "fengyun-1c-debris", "lat": -8.312291102754523, "lon": -66.6810873657139, "alt_km": 770.8347686838915, "timestamp": "2025-12-19T18:58:41.878034+00:00", "meta": {"OBJECT_NAME": "FENGYUN 1C DEB", "OBJECT_ID": "1999-025ENU", "EPOCH": "2025-12-12T06:55:51.957984", "MEAN_MOTION": 14.2676163, "ECCENTRICITY": 0.00496798, "INCLINATION": 99.0576, "RA_OF_ASC_NODE": 284.2227, "ARG_OF_PERICENTER": 17.6806, "MEAN_ANOMALY": 342.6088, "EPHEMERIS_TYPE": 0, "CLASSIFICATION_TYPE": "U", "NORAD_CAT_ID": 37919, "ELEMENT_SET_NO": 999, "REV_AT_EPOCH": 64902, "BSTAR": 0.00082874062, "MEAN_MOTION_DOT": 1.986e-05, "MEAN_MOTION_DDOT": 0}, "tle": {"line1": "1 37919U 99025ENU 25346.28879581  .00001986  00000+0  82874-3 0  9997", "line2": "2 37919  99.0576 284.2227 0049679  17.6806 342.6088 14.26761630649025"}}, "geometry": {"type": "Point", "coordinates": [-66.6810873657139, -8.312291102754523]}}, {"type": "Feature", "properties": {"norad_id": 37921, "name": "FENGYUN 1C DEB", "group": "fengyun-1c-debris", "lat": -24.240559309336742, "lon": -149.3880887957141, "alt_km": 950.9305725417389, "timestamp": "2025-12-19T18:58:41.878044+00:00", "meta": {"OBJECT_NAME": "FENGYUN 1C DEB", "OBJECT_ID": "1999-025ENW", "EPOCH": "2025-12-15T09:01:05.069568", "MEAN_MOTION": 13.95156429, "ECCENTRICITY": 0.00843191, "INCLINATION": 99.0218, "RA_OF_ASC_NODE": 30.3959, "ARG_OF_PERICENTER": 91.5684, "MEAN_ANOMALY": 269.5138, "EPHEMERIS_TYPE": 0, "CLASSIFICATION_TYPE": "U", "NORAD_CAT_ID": 37921, "ELEMENT_SET_NO": 999, "REV_AT_EPOCH": 63184, "BSTAR": 6.6280037e-05, "MEAN_MOTION_DOT": 4.9e-07, "MEAN_MOTION_DDOT": 0}, "tle": {"line1": "1 37921U 99025ENW 25349.37575312  .00000049  00000+0  66280-4 0  9991", "line2": "2 37921  99.0218  30.3959 0084319  91.5684 269.5138 13.95156429631841"}}, "geometry": {"type": "Point", "coordinates": [-149.3880887957141, -24.240559309336742]}}]}